CCSDS_OMM_VERS = 2.0
CREATION_DATE  = 
ORIGINATOR     = 

OBJECT_NAME    = KUIPER-00179
OBJECT_ID      = 2025-301D
CENTER_NAME    = EARTH
REF_FRAME      = TEME
TIME_SYSTEM    = UTC
MEAN_ELEMENT_THEORY = SGP/SGP4

EPOCH          = 2025-12-31T21:31:52.042368
MEAN_MOTION    = 15.36433280
ECCENTRICITY   = .00031177
INCLINATION    = 51.8739
RA_OF_ASC_NODE = 32.6482
ARG_OF_PERICENTER = 101.0643
MEAN_ANOMALY   = 259.0694

EPHEMERIS_TYPE = 0
CLASSIFICATION_TYPE = U
NORAD_CAT_ID   = 67136
ELEMENT_SET_NO = 999
REV_AT_EPOCH   = 349
BSTAR          = .14407474E-2
MEAN_MOTION_DOT = .51977E-3
MEAN_MOTION_DDOT = 0

CCSDS_OMM_VERS = 2.0
CREATION_DATE  = 
ORIGINATOR     = 

OBJECT_NAME    = KUIPER-00181
OBJECT_ID      = 2025-301E
CENTER_NAME    = EARTH
REF_FRAME      = TEME
TIME_SYSTEM    = UTC
MEAN_ELEMENT_THEORY = SGP/SGP4

EPOCH          = 2025-12-31T21:59:46.348224
MEAN_MOTION    = 15.34631539
ECCENTRICITY   = .00104683
INCLINATION    = 51.8646
RA_OF_ASC_NODE = 32.7733
ARG_OF_PERICENTER = 161.9360
MEAN_ANOMALY   = 198.2000

EPHEMERIS_TYPE = 0
CLASSIFICATION_TYPE = U
NORAD_CAT_ID   = 67137
ELEMENT_SET_NO = 999
REV_AT_EPOCH   = 347
BSTAR          = .14274462E-2
MEAN_MOTION_DOT = .48644E-3
MEAN_MOTION_DDOT = 0

CCSDS_OMM_VERS = 2.0
CREATION_DATE  = 
ORIGINATOR     = 

OBJECT_NAME    = KUIPER-00183
OBJECT_ID      = 2025-301F
CENTER_NAME    = EARTH
REF_FRAME      = TEME
TIME_SYSTEM    = UTC
MEAN_ELEMENT_THEORY = SGP/SGP4

EPOCH          = 2025-12-31T22:04:27.575904
MEAN_MOTION    = 15.34374796
ECCENTRICITY   = .00110734
INCLINATION    = 51.8623
RA_OF_ASC_NODE = 32.7918
ARG_OF_PERICENTER = 164.2823
MEAN_ANOMALY   = 195.8508

EPHEMERIS_TYPE = 0
CLASSIFICATION_TYPE = U
NORAD_CAT_ID   = 67138
ELEMENT_SET_NO = 999
REV_AT_EPOCH   = 348
BSTAR          = .13927843E-2
MEAN_MOTION_DOT = .47065E-3
MEAN_MOTION_DDOT = 0

CCSDS_OMM_VERS = 2.0
CREATION_DATE  = 
ORIGINATOR     = 

OBJECT_NAME    = KUIPER-00184
OBJECT_ID      = 2025-301G
CENTER_NAME    = EARTH
REF_FRAME      = TEME
TIME_SYSTEM    = UTC
MEAN_ELEMENT_THEORY = SGP/SGP4

EPOCH          = 2025-12-31T21:58:38.548416
MEAN_MOTION    = 15.34683446
ECCENTRICITY   = .00091211
INCLINATION    = 51.8634
RA_OF_ASC_NODE = 32.7677
ARG_OF_PERICENTER = 159.8555
MEAN_ANOMALY   = 200.2792

EPHEMERIS_TYPE = 0
CLASSIFICATION_TYPE = U
NORAD_CAT_ID   = 67139
ELEMENT_SET_NO = 999
REV_AT_EPOCH   = 359
BSTAR          = .15070715E-2
MEAN_MOTION_DOT = .51463E-3
MEAN_MOTION_DDOT = 0

CCSDS_OMM_VERS = 2.0
CREATION_DATE  = 
ORIGINATOR     = 

OBJECT_NAME    = KUIPER-00186
OBJECT_ID      = 2025-301H
CENTER_NAME    = EARTH
REF_FRAME      = TEME
TIME_SYSTEM    = UTC
MEAN_ELEMENT_THEORY = SGP/SGP4

EPOCH          = 2025-12-31T21:50:20.621760
MEAN_MOTION    = 15.35356419
ECCENTRICITY   = .00078501
INCLINATION    = 51.8685
RA_OF_ASC_NODE = 32.7339
ARG_OF_PERICENTER = 147.6459
MEAN_ANOMALY   = 212.5009

EPHEMERIS_TYPE = 0
CLASSIFICATION_TYPE = U
NORAD_CAT_ID   = 67140
ELEMENT_SET_NO = 999
REV_AT_EPOCH   = 331
BSTAR          = .12703445E-2
MEAN_MOTION_DOT = .44208E-3
MEAN_MOTION_DDOT = 0

CCSDS_OMM_VERS = 2.0
CREATION_DATE  = 
ORIGINATOR     = 

OBJECT_NAME    = KUIPER-00187
OBJECT_ID      = 2025-301J
CENTER_NAME    = EARTH
REF_FRAME      = TEME
TIME_SYSTEM    = UTC
MEAN_ELEMENT_THEORY = SGP/SGP4

EPOCH          = 2025-12-31T21:38:39.214464
MEAN_MOTION    = 15.36153506
ECCENTRICITY   = .00046653
INCLINATION    = 51.8713
RA_OF_ASC_NODE = 32.6830
ARG_OF_PERICENTER = 130.2911
MEAN_ANOMALY   = 229.8483

EPHEMERIS_TYPE = 0
CLASSIFICATION_TYPE = U
NORAD_CAT_ID   = 67141
ELEMENT_SET_NO = 999
REV_AT_EPOCH   = 331
BSTAR          = .16504321E-2
MEAN_MOTION_DOT = .59128E-3
MEAN_MOTION_DDOT = 0

CCSDS_OMM_VERS = 2.0
CREATION_DATE  = 
ORIGINATOR     = 

OBJECT_NAME    = KUIPER-00188
OBJECT_ID      = 2025-301K
CENTER_NAME    = EARTH
REF_FRAME      = TEME
TIME_SYSTEM    = UTC
MEAN_ELEMENT_THEORY = SGP/SGP4

EPOCH          = 2025-12-31T21:51:44.540352
MEAN_MOTION    = 15.35271917
ECCENTRICITY   = .00076327
INCLINATION    = 51.8697
RA_OF_ASC_NODE = 32.7402
ARG_OF_PERICENTER = 151.5959
MEAN_ANOMALY   = 208.5445

EPHEMERIS_TYPE = 0
CLASSIFICATION_TYPE = U
NORAD_CAT_ID   = 67142
ELEMENT_SET_NO = 999
REV_AT_EPOCH   = 331
BSTAR          = .1280161E-2
MEAN_MOTION_DOT = .4443E-3
MEAN_MOTION_DDOT = 0

CCSDS_OMM_VERS = 2.0
CREATION_DATE  = 
ORIGINATOR     = 

OBJECT_NAME    = KUIPER-00191
OBJECT_ID      = 2025-301L
CENTER_NAME    = EARTH
REF_FRAME      = TEME
TIME_SYSTEM    = UTC
MEAN_ELEMENT_THEORY = SGP/SGP4

EPOCH          = 2025-12-31T21:48:33.217920
MEAN_MOTION    = 15.35417181
ECCENTRICITY   = .00066863
INCLINATION    = 51.8674
RA_OF_ASC_NODE = 32.7257
ARG_OF_PERICENTER = 147.4338
MEAN_ANOMALY   = 212.7061

EPHEMERIS_TYPE = 0
CLASSIFICATION_TYPE = U
NORAD_CAT_ID   = 67143
ELEMENT_SET_NO = 999
REV_AT_EPOCH   = 334
BSTAR          = .126531E-2
MEAN_MOTION_DOT = .44105E-3
MEAN_MOTION_DDOT = 0

CCSDS_OMM_VERS = 2.0
CREATION_DATE  = 
ORIGINATOR     = 

OBJECT_NAME    = KUIPER-00196
OBJECT_ID      = 2025-301M
CENTER_NAME    = EARTH
REF_FRAME      = TEME
TIME_SYSTEM    = UTC
MEAN_ELEMENT_THEORY = SGP/SGP4

EPOCH          = 2025-12-31T21:35:54.147264
MEAN_MOTION    = 15.36212438
ECCENTRICITY   = .00037242
INCLINATION    = 51.8730
RA_OF_ASC_NODE = 32.6689
ARG_OF_PERICENTER = 112.8928
MEAN_ANOMALY   = 247.2452

EPHEMERIS_TYPE = 0
CLASSIFICATION_TYPE = U
NORAD_CAT_ID   = 67144
ELEMENT_SET_NO = 999
REV_AT_EPOCH   = 331
BSTAR          = .17157588E-2
MEAN_MOTION_DOT = .61614E-3
MEAN_MOTION_DDOT = 0

CCSDS_OMM_VERS = 2.0
CREATION_DATE  = 
ORIGINATOR     = 

OBJECT_NAME    = KUIPER-00204
OBJECT_ID      = 2025-301N
CENTER_NAME    = EARTH
REF_FRAME      = TEME
TIME_SYSTEM    = UTC
MEAN_ELEMENT_THEORY = SGP/SGP4

EPOCH          = 2025-12-31T21:28:07.156128
MEAN_MOTION    = 15.36804759
ECCENTRICITY   = .00022686
INCLINATION    = 51.8744
RA_OF_ASC_NODE = 32.6273
ARG_OF_PERICENTER = 87.4851
MEAN_ANOMALY   = 272.6395

EPHEMERIS_TYPE = 0
CLASSIFICATION_TYPE = U
NORAD_CAT_ID   = 67145
ELEMENT_SET_NO = 999
REV_AT_EPOCH   = 342
BSTAR          = .13850968E-2
MEAN_MOTION_DOT = .50547E-3
MEAN_MOTION_DDOT = 0

CCSDS_OMM_VERS = 2.0
CREATION_DATE  = 
ORIGINATOR     = 

OBJECT_NAME    = KUIPER-00210
OBJECT_ID      = 2025-301P
CENTER_NAME    = EARTH
REF_FRAME      = TEME
TIME_SYSTEM    = UTC
MEAN_ELEMENT_THEORY = SGP/SGP4

EPOCH          = 2025-12-31T22:03:03.750624
MEAN_MOTION    = 15.34490034
ECCENTRICITY   = .00105868
INCLINATION    = 51.8608
RA_OF_ASC_NODE = 32.7849
ARG_OF_PERICENTER = 166.9433
MEAN_ANOMALY   = 193.1828

EPHEMERIS_TYPE = 0
CLASSIFICATION_TYPE = U
NORAD_CAT_ID   = 67146
ELEMENT_SET_NO = 999
REV_AT_EPOCH   = 348
BSTAR          = .12114839E-2
MEAN_MOTION_DOT = .41E-3
MEAN_MOTION_DDOT = 0

CCSDS_OMM_VERS = 2.0
CREATION_DATE  = 
ORIGINATOR     = 

OBJECT_NAME    = KUIPER-00221
OBJECT_ID      = 2025-301Q
CENTER_NAME    = EARTH
REF_FRAME      = TEME
TIME_SYSTEM    = UTC
MEAN_ELEMENT_THEORY = SGP/SGP4

EPOCH          = 2025-12-31T21:40:19.837632
MEAN_MOTION    = 15.35959847
ECCENTRICITY   = .00050325
INCLINATION    = 51.8720
RA_OF_ASC_NODE = 32.6895
ARG_OF_PERICENTER = 131.5977
MEAN_ANOMALY   = 228.5441

EPHEMERIS_TYPE = 0
CLASSIFICATION_TYPE = U
NORAD_CAT_ID   = 67147
ELEMENT_SET_NO = 999
REV_AT_EPOCH   = 331
BSTAR          = .14282531E-2
MEAN_MOTION_DOT = .50743E-3
MEAN_MOTION_DDOT = 0

