KUIPER-00179            
1 67136U 25301D   25365.89713012  .00051977  00000+0  14407-2 0  9992
2 67136  51.8739  32.6482 0003117 101.0643 259.0694 15.36433280  3496
KUIPER-00181            
1 67137U 25301E   25365.91650866  .00048644  00000+0  14274-2 0  9992
2 67137  51.8646  32.7733 0010468 161.9360 198.2000 15.34631539  3470
KUIPER-00183            
1 67138U 25301F   25365.91976361  .00047065  00000+0  13928-2 0  9995
2 67138  51.8623  32.7918 0011073 164.2823 195.8508 15.34374796  3480
KUIPER-00184            
1 67139U 25301G   25365.91572394  .00051463  00000+0  15071-2 0  9992
2 67139  51.8634  32.7677 0009121 159.8555 200.2792 15.34683446  3591
KUIPER-00186            
1 67140U 25301H   25365.90996090  .00044208  00000+0  12703-2 0  9994
2 67140  51.8685  32.7339 0007850 147.6459 212.5009 15.35356419  3314
KUIPER-00187            
1 67141U 25301J   25365.90184276  .00059128  00000+0  16504-2 0  9990
2 67141  51.8713  32.6830 0004665 130.2911 229.8483 15.36153506  3314
KUIPER-00188            
1 67142U 25301K   25365.91093218  .00044430  00000+0  12802-2 0  9994
2 67142  51.8697  32.7402 0007632 151.5959 208.5445 15.35271917  3315
KUIPER-00191            
1 67143U 25301L   25365.90871780  .00044105  00000+0  12653-2 0  9995
2 67143  51.8674  32.7257 0006686 147.4338 212.7061 15.35417181  3341
KUIPER-00196            
1 67144U 25301M   25365.89993226  .00061614  00000+0  17158-2 0  9993
2 67144  51.8730  32.6689 0003724 112.8928 247.2452 15.36212438  3317
KUIPER-00204            
1 67145U 25301N   25365.89452727  .00050547  00000+0  13851-2 0  9999
2 67145  51.8744  32.6273 0002268  87.4851 272.6395 15.36804759  3429
KUIPER-00210            
1 67146U 25301P   25365.91879341  .00041000  00000+0  12115-2 0  9994
2 67146  51.8608  32.7849 0010586 166.9433 193.1828 15.34490034  3489
KUIPER-00221            
1 67147U 25301Q   25365.90300738  .00050743  00000+0  14283-2 0  9995
2 67147  51.8720  32.6895 0005032 131.5977 228.5441 15.35959847  3315
